
# Worst residual: 10.97 km
# MJD 60064.000000 (2023 Apr 30  0:00)
A10VwK1 = A10VgVe = 2022-134ZZZ
1 79966U 22134ZZZ 23120.49919926  .00000000  00000-0  00000-0 0 19852
2 79966 020.8687 263.6503 8105696 237.4522 104.6140 01.34033036    04

# Worst residual: 11.25 km
# MJD 60065.000000 (2023 May  1  0:00)
A10VwK1 = A10VgVe = 2022-134ZZZ
1 79966U 22134ZZZ 23121.49919926  .00000000  00000-0  00000-0 0 19853
2 79966 020.8639 263.4214 8105149 237.8483 227.1041 01.34025875    04

# Worst residual: 9.29 km
# MJD 60066.000000 (2023 May  2  0:00)
A10VwK1 = A10VgVe = 2022-134ZZZ
1 79966U 22134ZZZ 23122.49919926  .00000000  00000-0  00000-0 0 19854
2 79966 020.8563 263.1915 8105284 238.2408 349.6141 01.34042444    09

# Worst residual: 11.44 km
# MJD 60067.000000 (2023 May  3  0:00)
A10VwK1 = A10VgVe = 2022-134ZZZ
1 79966U 22134ZZZ 23123.49919926  .00000000  00000-0  00000-0 0 19855
2 79966 020.8513 262.9583 8105256 238.6328 112.1332 01.34043935    07

# Worst residual: 11.51 km
# MJD 60068.000000 (2023 May  4  0:00)
A10VwK1 = A10VgVe = 2022-134ZZZ
1 79966U 22134ZZZ 23124.49919926  .00000000  00000-0  00000-0 0 19856
2 79966 020.8433 262.7208 8104497 239.0385 234.6585 01.34036236    00

# Worst residual: 9.09 km
# MJD 60069.000000 (2023 May  5  0:00)
A10VwK1 = A10VgVe = 2022-134ZZZ
1 79966U 22134ZZZ 23125.49919926  .00000000  00000-0  00000-0 0 19857
2 79966 020.8355 262.4897 8104622 239.4313 357.2011 01.34052608    06

# Worst residual: 12.21 km
# MJD 60070.000000 (2023 May  6  0:00)
A10VwK1 = A10VgVe = 2022-134ZZZ
1 79966U 22134ZZZ 23126.49919926  .00000000  00000-0  00000-0 0 19858
2 79966 020.8315 262.2617 8104332 239.8171 119.7527 01.34048676    07

# Worst residual: 11.89 km
# MJD 60071.000000 (2023 May  7  0:00)
A10VwK1 = A10VgVe = 2022-134ZZZ
1 79966U 22134ZZZ 23127.49919926  .00000000  00000-0  00000-0 0 19859
2 79966 020.8227 262.0129 8103840 240.2308 242.3086 01.34047036    08

# Worst residual: 11.14 km
# MJD 60072.000000 (2023 May  8  0:00)
A10VwK1 = A10VgVe = 2022-134ZZZ
1 79966U 22134ZZZ 23128.49919926  .00000000  00000-0  00000-0 0 19850
2 79966 020.8155 261.7811 8103648 240.6236 004.8741 01.34062152    07

# Worst residual: 13.88 km
# MJD 60073.000000 (2023 May  9  0:00)
A10VwK1 = A10VgVe = 2022-134ZZZ
1 79966U 22134ZZZ 23129.49919926  .00000000  00000-0  00000-0 0 19851
2 79966 020.8099 261.5495 8103654 241.0104 127.4652 01.34055638    00

# Worst residual: 10.67 km
# MJD 60074.000000 (2023 May 10  0:00)
A10VwK1 = A10VgVe = 2022-134ZZZ
1 79966U 22134ZZZ 23130.49919926  .00000000  00000-0  00000-0 0 19853
2 79966 020.7994 261.2939 8103588 241.4320 250.0463 01.34058302    07

# Worst residual: 10.95 km
# MJD 60075.000000 (2023 May 11  0:00)
A10VwK1 = A10VgVe = 2022-134ZZZ
1 79966U 22134ZZZ 23131.49919926  .00000000  00000-0  00000-0 0 19854
2 79966 020.7904 261.0528 8103466 241.8352 012.6393 01.34068761    08

# Worst residual: 13.72 km
# MJD 60076.000000 (2023 May 12  0:00)
A10VwK1 = A10VgVe = 2022-134ZZZ
1 79966U 22134ZZZ 23132.49919926  .00000000  00000-0  00000-0 0 19855
2 79966 020.7832 260.8077 8103629 242.2383 135.2565 01.34062699    01

# Worst residual: 9.55 km
# MJD 60077.000000 (2023 May 13  0:00)
A10VwK1 = A10VgVe = 2022-134ZZZ
1 79966U 22134ZZZ 23133.49919926  .00000000  00000-0  00000-0 0 19856
2 79966 020.7710 260.5325 8103545 242.6818 257.8644 01.34068029    05

# Worst residual: 9.79 km
# MJD 60078.000000 (2023 May 14  0:00)
A10VwK1 = A10VgVe = 2022-134ZZZ
1 79966U 22134ZZZ 23134.49919926  .00000000  00000-0  00000-0 0 19857
2 79966 020.7632 260.2927 8102736 243.0836 020.4903 01.34077594    08

# Worst residual: 12.55 km
# MJD 60079.000000 (2023 May 15  0:00)
A10VwK1 = A10VgVe = 2022-134ZZZ
1 79966U 22134ZZZ 23135.49919926  .00000000  00000-0  00000-0 0 19858
2 79966 020.7580 260.0494 8102672 243.4861 143.1374 01.34073999    08

# Worst residual: 11.49 km
# MJD 60080.000000 (2023 May 16  0:00)
A10VwK1 = A10VgVe = 2022-134ZZZ
1 79966U 22134ZZZ 23136.49919926  .00000000  00000-0  00000-0 0 19859
2 79966 020.7484 259.7875 8102116 243.9146 265.7768 01.34075560    07

# Worst residual: 10.57 km
# MJD 60081.000000 (2023 May 17  0:00)
A10VwK1 = A10VgVe = 2022-134ZZZ
1 79966U 22134ZZZ 23137.49919926  .00000000  00000-0  00000-0 0 19850
2 79966 020.7432 259.5588 8101354 244.3000 028.4486 01.34084640    06

# Worst residual: 11.33 km
# MJD 60082.000000 (2023 May 18  0:00)
A10VwK1 = A10VgVe = 2022-134ZZZ
1 79966U 22134ZZZ 23138.49919926  .00000000  00000-0  00000-0 0 19851
2 79966 020.7408 259.3339 8101352 244.6861 151.1180 01.34082922    03

# Worst residual: 12.46 km
# MJD 60083.000000 (2023 May 19  0:00)
A10VwK1 = A10VgVe = 2022-134ZZZ
1 79966U 22134ZZZ 23139.49919926  .00000000  00000-0  00000-0 0 19852
2 79966 020.7316 259.0721 8101306 245.1113 273.7875 01.34082815    01

# Worst residual: 11.98 km
# MJD 60084.000000 (2023 May 20  0:00)
A10VwK1 = A10VgVe = 2022-134ZZZ
1 79966U 22134ZZZ 23140.49919926  .00000000  00000-0  00000-0 0 19854
2 79966 020.7261 258.8435 8100978 245.4949 036.4875 01.34091155    04

# Worst residual: 12.04 km
# MJD 60085.000000 (2023 May 21  0:00)
A10VwK1 = A10VgVe = 2022-134ZZZ
1 79966U 22134ZZZ 23141.49919926  .00000000  00000-0  00000-0 0 19855
2 79966 020.7227 258.6090 8100874 245.8922 159.1717 01.34085538    07

# Worst residual: 10.86 km
# MJD 60086.000000 (2023 May 22  0:00)
A10VwK1 = A10VgVe = 2022-134ZZZ
1 79966U 22134ZZZ 23142.49919926  .00000000  00000-0  00000-0 0 19856
2 79966 020.7174 258.3621 8100970 246.3059 281.8635 01.34088591    03

# Worst residual: 11.86 km
# MJD 60087.000000 (2023 May 23  0:00)
A10VwK1 = A10VgVe = 2022-134ZZZ
1 79966U 22134ZZZ 23143.49919926  .00000000  00000-0  00000-0 0 19857
2 79966 020.7110 258.1294 8100860 246.6938 044.5823 01.34098198    01

# Worst residual: 12.34 km
# MJD 60088.000000 (2023 May 24  0:00)
A10VwK1 = A10VgVe = 2022-134ZZZ
1 79966U 22134ZZZ 23144.49919926  .00000000  00000-0  00000-0 0 19858
2 79966 020.7099 257.9042 8100524 247.0830 167.2886 01.34089065    03

# Worst residual: 9.62 km
# MJD 60089.000000 (2023 May 25  0:00)
A10VwK1 = A10VgVe = 2022-134ZZZ
1 79966U 22134ZZZ 23145.49919926  .00000000  00000-0  00000-0 0 19859
2 79966 020.7048 257.6633 8100555 247.4905 290.0104 01.34097744    02

# Worst residual: 11.79 km
# MJD 60090.000000 (2023 May 26  0:00)
A10VwK1 = A10VgVe = 2022-134ZZZ
1 79966U 22134ZZZ 23146.49919926  .00000000  00000-0  00000-0 0 19850
2 79966 020.7012 257.4388 8100467 247.8725 052.7477 01.34107806    01

# Worst residual: 12.96 km
# MJD 60091.000000 (2023 May 27  0:00)
A10VwK1 = A10VgVe = 2022-134ZZZ
1 79966U 22134ZZZ 23147.49919926  .00000000  00000-0  00000-0 0 19851
2 79966 020.6997 257.2150 8099913 248.2597 175.4895 01.34094671    04

# Worst residual: 8.76 km
# MJD 60092.000000 (2023 May 28  0:00)
A10VwK1 = A10VgVe = 2022-134ZZZ
1 79966U 22134ZZZ 23148.49919926  .00000000  00000-0  00000-0 0 19852
2 79966 020.6945 256.9749 8100172 248.6659 298.2427 01.34106994    07
